IRIDIUM 7               
1 24793U 97020B   25036.04768335  .00000746  00000+0  25160-3 0  9998
2 24793  86.3931 232.2346 0001984  97.8640 262.2782 14.35747259453159
IRIDIUM 5               
1 24795U 97020D   25036.38484574  .00009687  00000+0  83785-3 0  9997
2 24795  86.3941 144.4215 0111254 250.5258 108.3924 14.92323378465826
IRIDIUM 4               
1 24796U 97020E   25036.04479095  .00000750  00000+0  24834-3 0  9995
2 24796  86.3931 229.1991 0001894  91.2039 268.9375 14.36657722453521
IRIDIUM 914             
1 24836U 97030A   25035.51235697  .00000922  00000+0  28293-3 0  9994
2 24836  86.3901 238.4278 0000992  34.2135 325.9128 14.40638300588026
IRIDIUM 16              
1 24841U 97030F   25035.76079144  .00000786  00000+0  25105-3 0  9997
2 24841  86.3993 260.9122 0003784 115.0595 245.0996 14.38500492448220
IRIDIUM 911             
1 24842U 97030G   25036.15110600  .00001020  00000+0  27272-3 0  9994
2 24842  86.4416 259.6538 0014290 169.9313 190.2180 14.47345760455968
IRIDIUM 17              
1 24870U 97034B   25036.43192624  .00000894  00000+0  29151-3 0  9992
2 24870  86.3947 290.1908 0003754  85.3745 274.7882 14.37618371444652
IRIDIUM 920             
1 24871U 97034C   25035.77177878  .00000820  00000+0  24728-3 0  9997
2 24871  86.3938 269.9832 0012297 149.8223 210.3687 14.41319790447764
